<?xml version="1.0" encoding="UTF-8"?>
<gpx version="1.1" creator="M5CoreS3 Unified Logger" xmlns="http://topografix.com">
  <trk>
    <name>M5CoreS3 Unified Track</name>
    <trkseg>
      <trkpt lat="40.239819" lon="-74.067182">
        <ele>49.2</ele>
        <time>2026-05-16T14:35:06Z</time>
        <extensions>
          <accel_x>-0.277</accel_x>
          <accel_y>-0.507</accel_y>
          <accel_z>0.798</accel_z>
          <gyro_x>-30.52</gyro_x>
          <gyro_y>-5.86</gyro_y>
          <gyro_z>16.54</gyro_z>
        </extensions>
      </trkpt>
      <trkpt lat="40.239827" lon="-74.067305">
        <ele>39.0</ele>
        <time>2026-05-16T14:35:12Z</time>
        <extensions>
          <accel_x>-0.411</accel_x>
          <accel_y>-0.157</accel_y>
          <accel_z>0.809</accel_z>
          <gyro_x>-19.59</gyro_x>
          <gyro_y>-7.69</gyro_y>
          <gyro_z>-12.33</gyro_z>
        </extensions>
      </trkpt>
      <trkpt lat="40.239876" lon="-74.067305">
        <ele>37.1</ele>
        <time>2026-05-16T14:35:17Z</time>
        <extensions>
          <accel_x>-0.758</accel_x>
          <accel_y>-0.005</accel_y>
          <accel_z>0.608</accel_z>
          <gyro_x>-7.02</gyro_x>
          <gyro_y>0.37</gyro_y>
          <gyro_z>4.33</gyro_z>
        </extensions>
      </trkpt>
      <trkpt lat="40.239831" lon="-74.067235">
        <ele>25.1</ele>
        <time>2026-05-16T14:35:26Z</time>
        <extensions>
          <accel_x>-0.050</accel_x>
          <accel_y>-0.070</accel_y>
          <accel_z>1.014</accel_z>
          <gyro_x>10.01</gyro_x>
          <gyro_y>21.48</gyro_y>
          <gyro_z>14.71</gyro_z>
        </extensions>
      </trkpt>
      <trkpt lat="40.239831" lon="-74.067235">
        <ele>25.1</ele>
        <time>2026-05-16T14:35:28Z</time>
        <extensions>
          <accel_x>-0.021</accel_x>
          <accel_y>-0.110</accel_y>
          <accel_z>0.959</accel_z>
          <gyro_x>-7.93</gyro_x>
          <gyro_y>-5.25</gyro_y>
          <gyro_z>-8.48</gyro_z>
        </extensions>
      </trkpt>
      <trkpt lat="40.239831" lon="-74.067235">
        <ele>25.1</ele>
        <time>2026-05-16T14:35:35Z</time>
        <extensions>
          <accel_x>0.012</accel_x>
          <accel_y>-0.104</accel_y>
          <accel_z>0.823</accel_z>
          <gyro_x>13.18</gyro_x>
          <gyro_y>1.95</gyro_y>
          <gyro_z>-20.51</gyro_z>
        </extensions>
      </trkpt>
      <trkpt lat="40.239791" lon="-74.067208">
        <ele>50.7</ele>
        <time>2026-05-16T14:35:41Z</time>
        <extensions>
          <accel_x>-0.078</accel_x>
          <accel_y>0.100</accel_y>
          <accel_z>0.858</accel_z>
          <gyro_x>-33.33</gyro_x>
          <gyro_y>-7.87</gyro_y>
          <gyro_z>-21.73</gyro_z>
        </extensions>
      </trkpt>
      <trkpt lat="40.239820" lon="-74.067227">
        <ele>45.5</ele>
        <time>2026-05-16T14:35:46Z</time>
        <extensions>
          <accel_x>-0.164</accel_x>
          <accel_y>0.005</accel_y>
          <accel_z>0.935</accel_z>
          <gyro_x>-2.75</gyro_x>
          <gyro_y>7.45</gyro_y>
          <gyro_z>-7.14</gyro_z>
        </extensions>
      </trkpt>
      <trkpt lat="40.239824" lon="-74.067235">
        <ele>45.5</ele>
        <time>2026-05-16T14:35:51Z</time>
        <extensions>
          <accel_x>-0.019</accel_x>
          <accel_y>0.075</accel_y>
          <accel_z>1.044</accel_z>
          <gyro_x>-41.50</gyro_x>
          <gyro_y>-41.81</gyro_y>
          <gyro_z>11.84</gyro_z>
        </extensions>
      </trkpt>
      <trkpt lat="40.239709" lon="-74.067188">
        <ele>35.0</ele>
        <time>2026-05-16T14:35:56Z</time>
        <extensions>
          <accel_x>-0.381</accel_x>
          <accel_y>-0.060</accel_y>
          <accel_z>0.895</accel_z>
          <gyro_x>-0.43</gyro_x>
          <gyro_y>0.37</gyro_y>
          <gyro_z>-0.06</gyro_z>
        </extensions>
      </trkpt>
      <trkpt lat="40.239847" lon="-74.067242">
        <ele>45.8</ele>
        <time>2026-05-16T14:36:01Z</time>
        <extensions>
          <accel_x>0.175</accel_x>
          <accel_y>0.683</accel_y>
          <accel_z>0.797</accel_z>
          <gyro_x>-30.46</gyro_x>
          <gyro_y>-49.01</gyro_y>
          <gyro_z>27.04</gyro_z>
        </extensions>
      </trkpt>
      <trkpt lat="40.239908" lon="-74.067343">
        <ele>27.3</ele>
        <time>2026-05-16T14:36:06Z</time>
        <extensions>
          <accel_x>0.352</accel_x>
          <accel_y>-0.222</accel_y>
          <accel_z>0.905</accel_z>
          <gyro_x>-0.18</gyro_x>
          <gyro_y>-4.21</gyro_y>
          <gyro_z>6.84</gyro_z>
        </extensions>
      </trkpt>
      <trkpt lat="40.239884" lon="-74.067266">
        <ele>43.7</ele>
        <time>2026-05-16T14:36:10Z</time>
        <extensions>
          <accel_x>0.168</accel_x>
          <accel_y>-0.132</accel_y>
          <accel_z>0.996</accel_z>
          <gyro_x>4.03</gyro_x>
          <gyro_y>27.34</gyro_y>
          <gyro_z>7.63</gyro_z>
        </extensions>
      </trkpt>
      <trkpt lat="40.239797" lon="-74.067227">
        <ele>0.0</ele>
        <time>2026-05-16T14:37:31Z</time>
        <extensions>
          <accel_x>-0.091</accel_x>
          <accel_y>0.064</accel_y>
          <accel_z>0.959</accel_z>
          <gyro_x>-0.24</gyro_x>
          <gyro_y>0.12</gyro_y>
          <gyro_z>0.24</gyro_z>
        </extensions>
      </trkpt>
      <trkpt lat="40.239719" lon="-74.067294">
        <ele>44.6</ele>
        <time>2026-05-16T14:37:36Z</time>
        <extensions>
          <accel_x>-0.038</accel_x>
          <accel_y>0.141</accel_y>
          <accel_z>0.986</accel_z>
          <gyro_x>2.32</gyro_x>
          <gyro_y>-3.72</gyro_y>
          <gyro_z>1.04</gyro_z>
        </extensions>
      </trkpt>
      <trkpt lat="40.239485" lon="-74.067564">
        <ele>43.7</ele>
        <time>2026-05-16T14:37:41Z</time>
        <extensions>
          <accel_x>-0.043</accel_x>
          <accel_y>0.187</accel_y>
          <accel_z>0.976</accel_z>
          <gyro_x>0.49</gyro_x>
          <gyro_y>-2.26</gyro_y>
          <gyro_z>0.55</gyro_z>
        </extensions>
      </trkpt>
      <trkpt lat="40.239151" lon="-74.067977">
        <ele>42.1</ele>
        <time>2026-05-16T14:37:46Z</time>
        <extensions>
          <accel_x>-0.044</accel_x>
          <accel_y>0.062</accel_y>
          <accel_z>0.969</accel_z>
          <gyro_x>1.95</gyro_x>
          <gyro_y>-1.34</gyro_y>
          <gyro_z>0.55</gyro_z>
        </extensions>
      </trkpt>
      <trkpt lat="40.238795" lon="-74.068373">
        <ele>40.3</ele>
        <time>2026-05-16T14:37:51Z</time>
        <extensions>
          <accel_x>-0.196</accel_x>
          <accel_y>-0.149</accel_y>
          <accel_z>1.039</accel_z>
          <gyro_x>0.24</gyro_x>
          <gyro_y>0.43</gyro_y>
          <gyro_z>11.35</gyro_z>
        </extensions>
      </trkpt>
      <trkpt lat="40.238582" lon="-74.068205">
        <ele>40.0</ele>
        <time>2026-05-16T14:37:56Z</time>
        <extensions>
          <accel_x>-0.165</accel_x>
          <accel_y>0.181</accel_y>
          <accel_z>1.015</accel_z>
          <gyro_x>-0.55</gyro_x>
          <gyro_y>1.22</gyro_y>
          <gyro_z>6.47</gyro_z>
        </extensions>
      </trkpt>
      <trkpt lat="40.238615" lon="-74.067540">
        <ele>40.6</ele>
        <time>2026-05-16T14:38:01Z</time>
        <extensions>
          <accel_x>-0.262</accel_x>
          <accel_y>0.201</accel_y>
          <accel_z>1.031</accel_z>
          <gyro_x>-0.67</gyro_x>
          <gyro_y>-0.49</gyro_y>
          <gyro_z>5.55</gyro_z>
        </extensions>
      </trkpt>
      <trkpt lat="40.238910" lon="-74.066798">
        <ele>42.1</ele>
        <time>2026-05-16T14:38:06Z</time>
        <extensions>
          <accel_x>-0.233</accel_x>
          <accel_y>-0.190</accel_y>
          <accel_z>0.982</accel_z>
          <gyro_x>1.77</gyro_x>
          <gyro_y>2.08</gyro_y>
          <gyro_z>7.02</gyro_z>
        </extensions>
      </trkpt>
      <trkpt lat="40.239297" lon="-74.066696">
        <ele>42.4</ele>
        <time>2026-05-16T14:38:11Z</time>
        <extensions>
          <accel_x>-0.086</accel_x>
          <accel_y>0.222</accel_y>
          <accel_z>0.963</accel_z>
          <gyro_x>0.00</gyro_x>
          <gyro_y>1.83</gyro_y>
          <gyro_z>-0.12</gyro_z>
        </extensions>
      </trkpt>
      <trkpt lat="40.239784" lon="-74.066973">
        <ele>42.9</ele>
        <time>2026-05-16T14:38:16Z</time>
        <extensions>
          <accel_x>-0.221</accel_x>
          <accel_y>-0.276</accel_y>
          <accel_z>1.032</accel_z>
          <gyro_x>-0.85</gyro_x>
          <gyro_y>-0.61</gyro_y>
          <gyro_z>12.94</gyro_z>
        </extensions>
      </trkpt>
      <trkpt lat="40.239736" lon="-74.067325">
        <ele>41.8</ele>
        <time>2026-05-16T14:38:21Z</time>
        <extensions>
          <accel_x>0.076</accel_x>
          <accel_y>0.193</accel_y>
          <accel_z>1.099</accel_z>
          <gyro_x>1.59</gyro_x>
          <gyro_y>-0.49</gyro_y>
          <gyro_z>-2.62</gyro_z>
        </extensions>
      </trkpt>
      <trkpt lat="40.239285" lon="-74.067881">
        <ele>40.4</ele>
        <time>2026-05-16T14:38:26Z</time>
        <extensions>
          <accel_x>0.024</accel_x>
          <accel_y>0.174</accel_y>
          <accel_z>1.166</accel_z>
          <gyro_x>1.89</gyro_x>
          <gyro_y>2.20</gyro_y>
          <gyro_z>0.85</gyro_z>
        </extensions>
      </trkpt>
      <trkpt lat="40.238725" lon="-74.068493">
        <ele>39.0</ele>
        <time>2026-05-16T14:38:31Z</time>
        <extensions>
          <accel_x>0.221</accel_x>
          <accel_y>-0.171</accel_y>
          <accel_z>0.956</accel_z>
          <gyro_x>-0.24</gyro_x>
          <gyro_y>-1.10</gyro_y>
          <gyro_z>-8.54</gyro_z>
        </extensions>
      </trkpt>
      <trkpt lat="40.238620" lon="-74.069107">
        <ele>38.7</ele>
        <time>2026-05-16T14:38:36Z</time>
        <extensions>
          <accel_x>-0.031</accel_x>
          <accel_y>0.053</accel_y>
          <accel_z>0.972</accel_z>
          <gyro_x>-0.06</gyro_x>
          <gyro_y>-5.55</gyro_y>
          <gyro_z>-0.49</gyro_z>
        </extensions>
      </trkpt>
      <trkpt lat="40.238689" lon="-74.069615">
        <ele>38.5</ele>
        <time>2026-05-16T14:38:41Z</time>
        <extensions>
          <accel_x>0.072</accel_x>
          <accel_y>-0.235</accel_y>
          <accel_z>0.961</accel_z>
          <gyro_x>-1.83</gyro_x>
          <gyro_y>-1.53</gyro_y>
          <gyro_z>-14.95</gyro_z>
        </extensions>
      </trkpt>
      <trkpt lat="40.238896" lon="-74.069570">
        <ele>37.5</ele>
        <time>2026-05-16T14:38:46Z</time>
        <extensions>
          <accel_x>0.031</accel_x>
          <accel_y>0.185</accel_y>
          <accel_z>1.295</accel_z>
          <gyro_x>0.61</gyro_x>
          <gyro_y>0.85</gyro_y>
          <gyro_z>-0.73</gyro_z>
        </extensions>
      </trkpt>
      <trkpt lat="40.239383" lon="-74.069061">
        <ele>38.3</ele>
        <time>2026-05-16T14:38:51Z</time>
        <extensions>
          <accel_x>-0.109</accel_x>
          <accel_y>0.234</accel_y>
          <accel_z>0.947</accel_z>
          <gyro_x>-1.04</gyro_x>
          <gyro_y>3.66</gyro_y>
          <gyro_z>-0.55</gyro_z>
        </extensions>
      </trkpt>
      <trkpt lat="40.240033" lon="-74.068350">
        <ele>40.2</ele>
        <time>2026-05-16T14:38:56Z</time>
        <extensions>
          <accel_x>-0.215</accel_x>
          <accel_y>0.035</accel_y>
          <accel_z>0.996</accel_z>
          <gyro_x>-12.21</gyro_x>
          <gyro_y>6.90</gyro_y>
          <gyro_z>2.26</gyro_z>
        </extensions>
      </trkpt>
      <trkpt lat="40.240575" lon="-74.067648">
        <ele>41.8</ele>
        <time>2026-05-16T14:39:01Z</time>
        <extensions>
          <accel_x>0.027</accel_x>
          <accel_y>0.008</accel_y>
          <accel_z>0.923</accel_z>
          <gyro_x>0.37</gyro_x>
          <gyro_y>-3.66</gyro_y>
          <gyro_z>1.28</gyro_z>
        </extensions>
      </trkpt>
      <trkpt lat="40.241029" lon="-74.067076">
        <ele>43.4</ele>
        <time>2026-05-16T14:39:06Z</time>
        <extensions>
          <accel_x>0.054</accel_x>
          <accel_y>-0.202</accel_y>
          <accel_z>0.950</accel_z>
          <gyro_x>-0.31</gyro_x>
          <gyro_y>0.85</gyro_y>
          <gyro_z>-8.91</gyro_z>
        </extensions>
      </trkpt>
      <trkpt lat="40.241022" lon="-74.066697">
        <ele>44.3</ele>
        <time>2026-05-16T14:39:11Z</time>
        <extensions>
          <accel_x>-0.097</accel_x>
          <accel_y>0.124</accel_y>
          <accel_z>0.955</accel_z>
          <gyro_x>0.00</gyro_x>
          <gyro_y>-1.04</gyro_y>
          <gyro_z>-5.07</gyro_z>
        </extensions>
      </trkpt>
      <trkpt lat="40.240603" lon="-74.066424">
        <ele>43.2</ele>
        <time>2026-05-16T14:39:16Z</time>
        <extensions>
          <accel_x>0.368</accel_x>
          <accel_y>-0.053</accel_y>
          <accel_z>1.030</accel_z>
          <gyro_x>-0.61</gyro_x>
          <gyro_y>-2.20</gyro_y>
          <gyro_z>-24.05</gyro_z>
        </extensions>
      </trkpt>
      <trkpt lat="40.240278" lon="-74.066675">
        <ele>41.9</ele>
        <time>2026-05-16T14:39:21Z</time>
        <extensions>
          <accel_x>-0.062</accel_x>
          <accel_y>0.203</accel_y>
          <accel_z>0.975</accel_z>
          <gyro_x>-0.12</gyro_x>
          <gyro_y>0.49</gyro_y>
          <gyro_z>0.18</gyro_z>
        </extensions>
      </trkpt>
      <trkpt lat="40.239877" lon="-74.067178">
        <ele>39.7</ele>
        <time>2026-05-16T14:39:26Z</time>
        <extensions>
          <accel_x>-0.005</accel_x>
          <accel_y>-0.261</accel_y>
          <accel_z>1.095</accel_z>
          <gyro_x>1.16</gyro_x>
          <gyro_y>1.46</gyro_y>
          <gyro_z>1.53</gyro_z>
        </extensions>
      </trkpt>
      <trkpt lat="40.239773" lon="-74.067304">
        <ele>39.5</ele>
        <time>2026-05-16T14:39:31Z</time>
        <extensions>
          <accel_x>-0.037</accel_x>
          <accel_y>0.052</accel_y>
          <accel_z>1.039</accel_z>
          <gyro_x>0.00</gyro_x>
          <gyro_y>0.12</gyro_y>
          <gyro_z>0.18</gyro_z>
        </extensions>
      </trkpt>
      <trkpt lat="40.239771" lon="-74.067300">
        <ele>39.2</ele>
        <time>2026-05-16T14:39:35Z</time>
        <extensions>
          <accel_x>-0.056</accel_x>
          <accel_y>0.153</accel_y>
          <accel_z>1.027</accel_z>
          <gyro_x>-6.84</gyro_x>
          <gyro_y>8.67</gyro_y>
          <gyro_z>21.61</gyro_z>
        </extensions>
      </trkpt>
      <trkpt lat="40.239768" lon="-74.067268">
        <ele>33.6</ele>
        <time>2026-05-16T14:39:41Z</time>
        <extensions>
          <accel_x>-0.259</accel_x>
          <accel_y>0.101</accel_y>
          <accel_z>1.108</accel_z>
          <gyro_x>47.18</gyro_x>
          <gyro_y>19.90</gyro_y>
          <gyro_z>5.19</gyro_z>
        </extensions>
      </trkpt>
    </trkseg>
  </trk>
</gpx>
